STARLINK-4005           
1 52686U 22053AG  26068.43553663  .00000085  00000+0  23464-4 0  9991
2 52686  53.2178 145.5399 0001456 100.1869 259.9287 15.08834601211082
STARLINK-6085           
1 57115U 23090Q   26068.53746065  .00027564  00000+0  15302-2 0  9997
2 57115  42.9983 264.1938 0019382 205.4773 154.5119 15.13089153150525
